OBJECT_NAME,OBJECT_ID,EPOCH,MEAN_MOTION,ECCENTRICITY,INCLINATION,RA_OF_ASC_NODE,ARG_OF_PERICENTER,MEAN_ANOMALY,EPHEMERIS_TYPE,CLASSIFICATION_TYPE,NORAD_CAT_ID,ELEMENT_SET_NO,REV_AT_EPOCH,BSTAR,MEAN_MOTION_DOT,MEAN_MOTION_DDOT
BEIDOU-2 G3,2010-024A,2026-07-08T22:02:39.066144,1.00269622,.00073896,4.5637,61.4168,359.4922,276.2453,0,U,36590,999,5898,0,-.124E-5,0
BADR-5,2010-025A,2026-07-08T20:57:38.465568,1.00275177,.00052977,0.0410,139.1736,55.0798,77.4500,0,U,36592,999,5343,0,.168E-5,0
COMS 1,2010-032A,2026-07-08T08:30:55.567584,0.99169315,.00113597,4.8563,75.1008,14.7290,313.4314,0,U,36744,999,5129,0,-.198E-5,0
ARABSAT-5A,2010-032B,2026-07-08T20:57:38.465568,1.00271093,.00056299,0.0970,63.2816,54.6378,153.7835,0,U,36745,999,5886,0,.168E-5,0
ECHOSTAR 15,2010-034A,2026-07-08T14:50:40.311168,1.00270546,.00020973,0.0169,316.2291,127.3647,306.8272,0,U,36792,999,5853,0,.15E-6,0
BEIDOU-2 IGSO-1,2010-036A,2026-07-07T14:57:11.145024,1.00266308,.0059224,54.3062,162.7756,225.1869,229.2421,0,U,36828,999,5830,0,-.58E-6,0
NILESAT 201,2010-037A,2026-07-08T20:30:38.976192,1.00271735,.00054469,0.0337,176.7688,318.1293,92.5758,0,U,36830,999,5859,0,-.43E-6,0
RASCOM-QAF 1R,2010-037B,2026-07-08T20:33:23.711616,1.00271938,.00064829,0.0191,71.3282,27.5767,139.1242,0,U,36831,999,5852,0,.33E-6,0
AEHF-1 (USA 214),2010-039A,2026-07-08T20:57:38.465568,1.00271653,.00037895,8.2712,67.7607,36.1175,167.2761,0,U,36868,999,5387,0,.155E-5,0
XM-5,2010-053A,2026-07-08T13:09:08.425152,1.00270805,.00018377,0.0624,268.3398,309.8514,150.3954,0,U,37185,999,5769,0,-.8E-7,0
BSAT-3B,2010-056B,2026-07-08T21:03:52.608672,1.00270615,.000254,0.0634,235.9728,307.7901,168.8697,0,U,37207,999,5231,0,-.336E-5,0
BEIDOU-2 G4,2010-057A,2026-07-08T19:35:28.326048,1.00270552,.00052982,3.6970,68.8160,185.3883,126.3837,0,U,37210,999,5750,0,-.102E-5,0
SKYTERRA 1,2010-061A,2026-07-08T14:31:49.494144,1.00270930,.00022242,5.1679,50.8120,34.6627,317.7059,0,U,37218,999,5740,0,-.107E-5,0
HYLAS 1,2010-065A,2026-07-08T20:57:38.465568,1.00637448,.00005316,5.6957,72.7513,175.5786,16.8960,0,U,37237,999,710,0,.159E-5,0
INTELSAT 17 (IS-17),2010-065B,2026-07-08T21:54:09.339840,1.00271350,.00026015,0.0120,82.5734,29.2981,209.5153,0,U,37238,999,5346,0,.13E-6,0
BEIDOU-2 IGSO-2,2010-068A,2026-07-08T14:28:30.978048,1.00276139,.00567556,47.5085,271.5668,213.3757,127.0514,0,U,37256,999,5700,0,-.203E-5,0
EUTELSAT KA-SAT 9A,2010-069A,2026-07-08T21:13:38.614944,1.00273497,.00043325,0.0612,13.5969,126.4487,114.1873,0,U,37258,999,4422,0,.76E-6,0
HISPASAT 30W-5,2010-070A,2026-07-08T18:41:20.804928,1.00272126,.00055769,0.0283,153.7344,329.2141,54.1160,0,U,37264,999,5340,0,-.201E-5,0
KOREASAT 6,2010-070B,2026-07-08T19:35:28.326048,1.00272002,.00025083,0.0150,334.1994,148.9634,257.3681,0,U,37265,999,5698,0,-.97E-6,0
BEIDOU-2 IGSO-3,2011-013A,2026-07-09T12:26:44.979360,1.00261852,.0035198,62.4382,39.9419,183.2390,357.7550,0,U,37384,999,5588,0,-.172E-5,0
INTELSAT 28 (IS-28),2011-016A,2026-07-08T18:40:50.852640,1.00272860,.0003751,1.8588,82.3583,34.8276,58.0217,0,U,37392,999,5350,0,-.212E-5,0
YAHSAT 1A,2011-016B,2026-07-08T20:20:38.704416,1.00270150,.00033044,0.0191,57.5401,56.4932,170.4105,0,U,37393,999,4262,0,.116E-5,0
SBIRS GEO-1 (USA 230),2011-019A,2026-07-08T19:17:38.686272,1.00272188,.00019155,4.5829,53.1098,47.4839,167.3621,0,U,37481,999,5561,0,.11E-5,0
TELSTAR 14R,2011-021A,2026-07-08T20:14:39.568992,1.00271912,.00018437,0.0698,84.4871,354.7884,88.1884,0,U,37602,999,5605,0,-.266E-5,0
GSAT-8,2011-022A,2026-07-08T20:20:38.704416,1.00271175,.0002546,2.1838,81.5628,166.3466,39.1203,0,U,37605,999,5343,0,.97E-6,0
ST-2,2011-022B,2026-07-08T22:02:38.646240,1.00266632,.00013697,0.0143,341.8049,152.8611,210.8420,0,U,37606,999,5549,0,-.196E-5,0
ZHONGXING-10,2011-026A,2026-07-08T21:22:35.777568,1.00269940,.00035319,1.0996,83.9762,19.3255,229.6983,0,U,37677,999,5521,0,-.175E-5,0
SES-3,2011-035A,2026-07-08T21:45:56.077056,1.00271276,.00020217,1.3797,82.8507,23.0426,44.4520,0,U,37748,999,5481,0,-.89E-6,0
KAZSAT-2,2011-035B,2026-07-08T22:02:38.646240,1.00270346,.00020448,0.0269,137.3277,31.7004,175.0095,0,U,37749,999,5361,0,-.183E-5,0
BEIDOU-2 IGSO-4,2011-038A,2026-07-08T22:10:32.983104,1.00281046,.01601663,54.6042,165.4802,231.4337,316.7492,0,U,37763,999,5486,0,.47E-6,0
ASTRA 1N,2011-041A,2026-07-08T20:37:45.793920,1.00274824,.000578,0.0702,29.2009,73.5089,152.7634,0,U,37775,999,4474,0,.134E-5,0
BSAT-3C (JCSAT-110R),2011-041B,2026-07-08T15:56:53.291616,1.00269957,.00002006,0.0156,346.7542,246.1042,42.9369,0,U,37776,999,5068,0,-.336E-5,0
