BEIDOU-2 G3             
1 36590U 10024A   26189.91850771 -.00000124  00000+0  00000+0 0  9990
2 36590   4.5637  61.4168 0007389 359.4922 276.2453  1.00269622 58984
BADR-5                  
1 36592U 10025A   26189.87336187  .00000168  00000+0  00000+0 0  9995
2 36592   0.0410 139.1736 0005297  55.0798  77.4500  1.00275177 53437
COMS 1                  
1 36744U 10032A   26189.35480981 -.00000198  00000+0  00000+0 0  9991
2 36744   4.8563  75.1008 0011359  14.7290 313.4314  0.99169315 51294
ARABSAT-5A              
1 36745U 10032B   26189.87336187  .00000168  00000+0  00000+0 0  9993
2 36745   0.0970  63.2816 0005629  54.6378 153.7835  1.00271093 58866
ECHOSTAR 15             
1 36792U 10034A   26189.61852212  .00000015  00000+0  00000+0 0  9992
2 36792   0.0169 316.2291 0002097 127.3647 306.8272  1.00270546 58531
BEIDOU-2 IGSO-1         
1 36828U 10036A   26188.62304566 -.00000058  00000+0  00000+0 0  9996
2 36828  54.3062 162.7756 0059224 225.1869 229.2421  1.00266308 58302
NILESAT 201             
1 36830U 10037A   26189.85461778 -.00000043  00000+0  00000+0 0  9999
2 36830   0.0337 176.7688 0005446 318.1293  92.5758  1.00271735 58593
RASCOM-QAF 1R           
1 36831U 10037B   26189.85652444  .00000033  00000+0  00000+0 0  9990
2 36831   0.0191  71.3282 0006482  27.5767 139.1242  1.00271938 58524
AEHF-1 (USA 214)        
1 36868U 10039A   26189.87336187  .00000155  00000+0  00000+0 0  9992
2 36868   8.2712  67.7607 0003789  36.1175 167.2761  1.00271653 53874
XM-5                    
1 37185U 10053A   26189.54801418 -.00000008  00000+0  00000+0 0  9997
2 37185   0.0624 268.3398 0001837 309.8514 150.3954  1.00270805 57693
BSAT-3B                 
1 37207U 10056B   26189.87769223 -.00000336  00000+0  00000+0 0  9992
2 37207   0.0634 235.9728 0002540 307.7901 168.8697  1.00270615 52316
BEIDOU-2 G4             
1 37210U 10057A   26189.81630007 -.00000102  00000+0  00000+0 0  9999
2 37210   3.6970  68.8160 0005298 185.3883 126.3837  1.00270552 57508
SKYTERRA 1              
1 37218U 10061A   26189.60543396 -.00000107  00000+0  00000+0 0  9998
2 37218   5.1679  50.8120 0002224  34.6627 317.7059  1.00270930 57405
HYLAS 1                 
1 37237U 10065A   26189.87336187  .00000159  00000+0  00000+0 0  9996
2 37237   5.6957  72.7513 0000531 175.5786  16.8960  1.00637448  7100
INTELSAT 17 (IS-17)     
1 37238U 10065B   26189.91260810  .00000013  00000+0  00000+0 0  9990
2 37238   0.0120  82.5734 0002601  29.2981 209.5153  1.00271350 53469
BEIDOU-2 IGSO-2         
1 37256U 10068A   26189.60313632 -.00000203  00000+0  00000+0 0  9992
2 37256  47.5085 271.5668 0056755 213.3757 127.0514  1.00276139 57006
EUTELSAT KA-SAT 9A      
1 37258U 10069A   26189.88447471  .00000076  00000+0  00000+0 0  9991
2 37258   0.0612  13.5969 0004332 126.4487 114.1873  1.00273497 44223
HISPASAT 30W-5          
1 37264U 10070A   26189.77871302 -.00000201  00000+0  00000+0 0  9993
2 37264   0.0283 153.7344 0005576 329.2141  54.1160  1.00272126 53409
KOREASAT 6              
1 37265U 10070B   26189.81630007 -.00000097  00000+0  00000+0 0  9997
2 37265   0.0150 334.1994 0002508 148.9634 257.3681  1.00272002 56988
BEIDOU-2 IGSO-3         
1 37384U 11013A   26190.51857615 -.00000172  00000+0  00000+0 0  9996
2 37384  62.4382  39.9419 0035198 183.2390 357.7550  1.00261852 55882
INTELSAT 28 (IS-28)     
1 37392U 11016A   26189.77836635 -.00000212  00000+0  00000+0 0  9998
2 37392   1.8588  82.3583 0003751  34.8276  58.0217  1.00272860 53503
YAHSAT 1A               
1 37393U 11016B   26189.84767019  .00000116  00000+0  00000+0 0  9998
2 37393   0.0191  57.5401 0003304  56.4932 170.4105  1.00270150 42627
SBIRS GEO-1 (USA 230)   
1 37481U 11019A   26189.80391998  .00000110  00000+0  00000+0 0  9998
2 37481   4.5829  53.1098 0001915  47.4839 167.3621  1.00272188 55612
TELSTAR 14R             
1 37602U 11021A   26189.84351353 -.00000266  00000+0  00000+0 0  9994
2 37602   0.0698  84.4871 0001843 354.7884  88.1884  1.00271912 56056
GSAT-8                  
1 37605U 11022A   26189.84767019  .00000097  00000+0  00000+0 0  9999
2 37605   2.1838  81.5628 0002546 166.3466  39.1203  1.00271175 53431
ST-2                    
1 37606U 11022B   26189.91850285 -.00000196  00000+0  00000+0 0  9997
2 37606   0.0143 341.8049 0001369 152.8611 210.8420  1.00266632 55490
ZHONGXING-10            
1 37677U 11026A   26189.89069187 -.00000175  00000+0  00000+0 0  9996
2 37677   1.0996  83.9762 0003531  19.3255 229.6983  1.00269940 55212
SES-3                   
1 37748U 11035A   26189.90689904 -.00000089  00000+0  00000+0 0  9996
2 37748   1.3797  82.8507 0002021  23.0426  44.4520  1.00271276 54813
KAZSAT-2                
1 37749U 11035B   26189.91850285 -.00000183  00000+0  00000+0 0  9995
2 37749   0.0269 137.3277 0002044  31.7004 175.0095  1.00270346 53619
BEIDOU-2 IGSO-4         
1 37763U 11038A   26189.92399286  .00000047  00000+0  00000+0 0  9992
2 37763  54.6042 165.4802 0160166 231.4337 316.7492  1.00281046 54865
ASTRA 1N                
1 37775U 11041A   26189.85955780  .00000134  00000+0  00000+0 0  9995
2 37775   0.0702  29.2009 0005780  73.5089 152.7634  1.00274824 44749
BSAT-3C (JCSAT-110R)    
1 37776U 11041B   26189.66450569 -.00000336  00000+0  00000+0 0  9995
2 37776   0.0156 346.7542 0000200 246.1042  42.9369  1.00269957 50687
